{"type":"FeatureCollection","features":[{"type":"Feature","id":69,"geometry":{"type":"Polygon","coordinates":[[[-72.597286072999964,44.479393964000053],[-72.598698765999984,44.47996340800006],[-72.602496573999986,44.481475484000043],[-72.60410032599998,44.482121996000046],[-72.605663830999958,44.482807219000051],[-72.614191073999962,44.486241127000028],[-72.616946792999954,44.487340773000028],[-72.61945400899998,44.488349628000037],[-72.625027131999957,44.490588037000066],[-72.628413586999955,44.49194589800004],[-72.630578020999963,44.49281360100008],[-72.632727827999986,44.493745175000072],[-72.634604196999987,44.494551130000048],[-72.641253226999936,44.497232045000032],[-72.644584712999972,44.49857869300007],[-72.646399936999956,44.499293636000061],[-72.650182405999942,44.500816830000076],[-72.654490358999965,44.50254338600007],[-72.658882413999947,44.50430485000004],[-72.661896423999963,44.505516440000065],[-72.664087056999961,44.506401378000078],[-72.665724907999959,44.507061371000077],[-72.667132739999943,44.507619084000055],[-72.670215264999968,44.508877151000036],[-72.673848901999975,44.510346684000069],[-72.676803003999964,44.511546992000035],[-72.679670521999981,44.512689943000055],[-72.682841173999975,44.513964629000043],[-72.685229171999936,44.514934518000075],[-72.68696835999998,44.515629139000055],[-72.688794375999976,44.516323500000055],[-72.690628303999972,44.517039596000075],[-72.692795620999959,44.517876414000057],[-72.693903940999974,44.518309119000037],[-72.695752728999935,44.519030418000057],[-72.697076712999944,44.519544797000037],[-72.698368874999971,44.520052917000044],[-72.699612276999972,44.52053113900007],[-72.702758432999985,44.521748526000067],[-72.705097801999955,44.522655989000043],[-72.707637748999957,44.523560519000057],[-72.706545993999953,44.52488253100006],[-72.705737312999986,44.525974808000058],[-72.704928588999962,44.527063299000076],[-72.703517187999978,44.528970184000059],[-72.702382083999964,44.531127016000028],[-72.70016263399998,44.533728690000032],[-72.695892472999958,44.540348659000074],[-72.69416585099998,44.542476990000068],[-72.693266421999965,44.543744637000032],[-72.692366079999942,44.545014618000039],[-72.698626137999952,44.54623078700007],[-72.699632424999947,44.546427468000047],[-72.701581551999936,44.54680885700003],[-72.703861272999973,44.547254689000056],[-72.705948605999936,44.54766356500005],[-72.706519589999971,44.54777574600007],[-72.713472699999954,44.549140045000058],[-72.721129506999944,44.550532887000031],[-72.729768184999955,44.552074703000073],[-72.732415430999936,44.552546853000081],[-72.741362179999953,44.555458576000035],[-72.749167476999958,44.557998080000061],[-72.751908213999968,44.558889572000055],[-72.753240153999968,44.557201049000071],[-72.756349718999957,44.558409654000059],[-72.759493582999937,44.559631505000027],[-72.76027572299995,44.559935253000049],[-72.769257160999985,44.563270827000053],[-72.769673704999946,44.563408434000053],[-72.776999217999958,44.551979999000025],[-72.778013405999957,44.550402648000045],[-72.778703170999961,44.549393938000037],[-72.779659138999989,44.547976812000059],[-72.78027770999995,44.54706555000007],[-72.784387651999964,44.541061810000031],[-72.789378374999956,44.542172396000069],[-72.792437145999941,44.542847658000028],[-72.799112886999978,44.544324175000042],[-72.806626860999984,44.545999460000075],[-72.809958112999936,44.546723106000059],[-72.811637218999977,44.54428690900005],[-72.815206801999977,44.539115073000062],[-72.819634704999942,44.532700607000038],[-72.819652175999977,44.532674460000067],[-72.830797482999969,44.516435526000066],[-72.820190987999979,44.512478292000026],[-72.803629945999944,44.506289889000072],[-72.837202699999978,44.460755793000033],[-72.838297218999969,44.459301837000055],[-72.803207102999977,44.451524999000071],[-72.78606661699996,44.447417557000051],[-72.776510243999951,44.445287596000071],[-72.765560491999963,44.442814590000069],[-72.749237394999966,44.436578070000053],[-72.744597329999976,44.434804572000075],[-72.734344332999967,44.430827750000049],[-72.725446149999982,44.427300827000067],[-72.716214498999989,44.423639746000049],[-72.70752052399996,44.420142534000036],[-72.70582918599996,44.419462617000079],[-72.697927050999965,44.416241418000027],[-72.68904652599997,44.412619643000028],[-72.680720282999971,44.409207250000065],[-72.674651060999963,44.40665991000003],[-72.664926159999936,44.402628420000042],[-72.654340844999979,44.39830648800006],[-72.652717966999944,44.400688973000058],[-72.652700334999963,44.400715095000066],[-72.650868958999979,44.40325361500004],[-72.649176663999981,44.405600231000051],[-72.64727852599998,44.408221394000066],[-72.645748701999935,44.410382447000075],[-72.643989662999957,44.412865772000032],[-72.642296542999986,44.415254581000056],[-72.640702529999942,44.417505639000069],[-72.63923441999998,44.419577339000057],[-72.637826408999956,44.421564261000071],[-72.636339694999947,44.423660963000032],[-72.634850125999947,44.425764129000072],[-72.633625589999951,44.427490783000053],[-72.631785271999945,44.430085782000049],[-72.630582598999979,44.431784478000054],[-72.629008468999984,44.434003755000049],[-72.627655990999983,44.435911378000071],[-72.626941213999942,44.43692012300005],[-72.626165923999963,44.438013436000062],[-72.624681885999962,44.440106468000067],[-72.62313777199995,44.442235723000067],[-72.621726341999988,44.444249441000068],[-72.620166800999982,44.446435277000035],[-72.618717259999983,44.448465196000029],[-72.617232908999938,44.450541118000046],[-72.615720512999985,44.452656737000041],[-72.614256004999959,44.45470731100005],[-72.612729609999974,44.456842521000056],[-72.611217145999944,44.458960778000062],[-72.609770872999945,44.460986165000065],[-72.608179099999973,44.463212270000042],[-72.606302785999958,44.465837385000043],[-72.605244656999957,44.467316082000025],[-72.603683609999962,44.469344285000034],[-72.602333373999954,44.471098513000072],[-72.600250806999952,44.474024202000066],[-72.598893832999977,44.477272397000036],[-72.597286072999964,44.479393964000053]]]},"properties":{"OBJECTID":69,"State":"Vermont","County":"Lamoille County","TOWNNAMEMC":"Stowe","TOWNNAME":"STOWE","FIPS6":15040,"CNTY":15,"TOWNGEOID":"5001570525","Shape__Area":0.02127779819805678,"Shape__Length":0.6969561624297187}}]}